0 DELTA 1 R/B
1 20323U 89089B   13282.53461522  .00000213  00000-0  65580-4 0  7710
2 20323 097.0966 062.7581 0072265 356.3854 066.4365 14.47370354259862
0 DELTA 1 R/B
1 20323U 89089B   13283.64116953  .00000202  00000-0  62789-4 0  7725
2 20323 097.0968 063.6871 0072154 352.8947 072.1860 14.47370774260027
0 DELTA 1 R/B
1 20323U 89089B   13286.20589197  .00000207  00000-0  63943-4 0  7744
2 20323 097.0974 065.8403 0071972 344.7491 115.8504 14.47371877260395
0 DELTA 1 R/B
1 20323U 89089B   13287.51219753  .00000276  00000-0  82239-4 0  7753
2 20323 097.0977 066.9372 0071926 340.5429 082.5088 14.47372584260583
0 DELTA 1 R/B
1 20323U 89089B   13288.83640147  .00000356  00000-0  10357-3 0  7765
2 20323 097.0981 068.0493 0071824 336.3367 142.3762 14.47373819260773
0 DELTA 1 R/B
1 20323U 89089B   13290.08074693  .00000319  00000-0  93661-4 0  7772
2 20323 097.0984 069.0942 0071747 332.3787 146.1435 14.47374858260955
0 DELTA 1 R/B
1 20323U 89089B   13291.18349512  .00000331  00000-0  96819-4 0  7782
2 20323 097.0985 070.0203 0071684 328.8518 132.1309 14.47375642261116
0 DELTA 1 R/B
1 20323U 89089B   13292.49103942  .00000348  00000-0  10147-3 0  7790
2 20323 097.0985 071.1183 0071621 324.6721 105.2301 14.47376415261309
0 DELTA 1 R/B
1 20323U 89089B   13293.82412383  .00000408  00000-0  11713-3 0  7809
2 20323 097.0986 072.2380 0071543 320.4202 211.4050 14.47377465261499
0 DELTA 1 R/B
1 20323U 89089B   13294.85754199  .00000421  00000-0  12081-3 0  7812
2 20323 097.0986 073.1058 0071493 317.1054 196.1591 14.47378538261641
0 DELTA 1 R/B
1 20323U 89089B   13296.16186824  .00000431  00000-0  12322-3 0  7822
2 20323 097.0985 074.2012 0071449 312.9291 152.5119 14.47379767261837
